start=new Date('2022-08-07T00:00:00.000Z').valueOf();
sats=[{"SITE":"AFETR","EPHEMERIS_TYPE":"0","EPOCH":"2022-08-06T20:17:56.296608","ARG_OF_PERICENTER":"67.9691","ELEMENT_SET_NO":"999","LAUNCH_DATE":"2020-03-18","PERIOD":"95.592","ECCENTRICITY":"0.00016040","PERIAPSIS":"546.103","FILE":"3530813","REV_AT_EPOCH":"13227","OBJECT_ID":"2020-019BG","NORAD_CAT_ID":"45414","REF_FRAME":"TEME","MEAN_ELEMENT_THEORY":"SGP4","MEAN_MOTION_DDOT":"0.0000000000000","RCS_SIZE":"LARGE","MEAN_MOTION_DOT":"0.00002960","BSTAR":"0.00021751000000","CENTER_NAME":"EARTH","TLE_LINE1":"1 45414U 20019BG  22218.84579047  .00002960  00000-0  21751-3 0  9995","DECAY_DATE":null,"GP_ID":"209722548","INCLINATION":"53.0547","APOAPSIS":"548.324","MEAN_ANOMALY":"292.1468","SEMIMAJOR_AXIS":"6925.349","CLASSIFICATION_TYPE":"U","OBJECT_NAME":"STARLINK-1309","TIME_SYSTEM":"UTC","OBJECT_TYPE":"PAYLOAD","RA_OF_ASC_NODE":"261.2236","MEAN_MOTION":"15.06400003","COUNTRY_CODE":"US","TLE_LINE2":"2 45414  53.0547 261.2236 0001604  67.9691 292.1468 15.06400003132271"},{"OBJECT_NAME":"STARLINK-1316","OBJECT_TYPE":"PAYLOAD","RA_OF_ASC_NODE":"262.3087","TIME_SYSTEM":"UTC","TLE_LINE2":"2 45415  53.0549 262.3087 0001300  89.3674 270.7464 15.06396197132278","MEAN_MOTION":"15.06396197","COUNTRY_CODE":"US","GP_ID":"209723798","INCLINATION":"53.0549","APOAPSIS":"548.126","DECAY_DATE":null,"TLE_LINE1":"1 45415U 20019BH  22218.60620533  .00000018  00000-0  20130-4 0  9990","SEMIMAJOR_AXIS":"6925.360","CLASSIFICATION_TYPE":"U","MEAN_ANOMALY":"270.7464","REV_AT_EPOCH":"13227","OBJECT_ID":"2020-019BH","PERIOD":"95.592","LAUNCH_DATE":"2020-03-18","ELEMENT_SET_NO":"999","PERIAPSIS":"546.325","ECCENTRICITY":"0.00013000","FILE":"3530813","RCS_SIZE":"LARGE","MEAN_MOTION_DDOT":"0.0000000000000","MEAN_MOTION_DOT":"0.00000018","BSTAR":"0.00002013000000","CENTER_NAME":"EARTH","NORAD_CAT_ID":"45415","MEAN_ELEMENT_THEORY":"SGP4","REF_FRAME":"TEME","SITE":"AFETR","EPHEMERIS_TYPE":"0","EPOCH":"2022-08-06T14:32:56.140512","ARG_OF_PERICENTER":"89.3674"},{"COUNTRY_CODE":"US","MEAN_MOTION":"15.06391904","TLE_LINE2":"2 45416  53.0527 261.2634 0001422  78.2191 281.8957 15.06391904132290","OBJECT_TYPE":"PAYLOAD","RA_OF_ASC_NODE":"261.2634","TIME_SYSTEM":"UTC","OBJECT_NAME":"STARLINK-1318","MEAN_ANOMALY":"281.8957","CLASSIFICATION_TYPE":"U","SEMIMAJOR_AXIS":"6925.373","DECAY_DATE":null,"TLE_LINE1":"1 45416U 20019BJ  22218.83842199  .00000049  00000-0  22197-4 0  9999","APOAPSIS":"548.223","INCLINATION":"53.0527","GP_ID":"209724049","MEAN_ELEMENT_THEORY":"SGP4","REF_FRAME":"TEME","NORAD_CAT_ID":"45416","BSTAR":"0.00002219700000","CENTER_NAME":"EARTH","MEAN_MOTION_DOT":"0.00000049","RCS_SIZE":"LARGE","MEAN_MOTION_DDOT":"0.0000000000000","FILE":"3530813","ECCENTRICITY":"0.00014220","PERIAPSIS":"546.254","LAUNCH_DATE":"2020-03-18","PERIOD":"95.593","ELEMENT_SET_NO":"999","OBJECT_ID":"2020-019BJ","REV_AT_EPOCH":"13229","ARG_OF_PERICENTER":"78.2191","EPOCH":"2022-08-06T20:07:19.659936","EPHEMERIS_TYPE":"0","SITE":"AFETR"},{"DECAY_DATE":null,"TLE_LINE1":"1 45417U 20019BK  22218.57762893  .00002456  00000-0  18369-3 0  9992","INCLINATION":"53.0531","APOAPSIS":"548.052","GP_ID":"209722798","MEAN_ANOMALY":"270.7435","SEMIMAJOR_AXIS":"6925.322","CLASSIFICATION_TYPE":"U","OBJECT_TYPE":"PAYLOAD","RA_OF_ASC_NODE":"292.4176","TIME_SYSTEM":"UTC","OBJECT_NAME":"STARLINK-1286","COUNTRY_CODE":"US","MEAN_MOTION":"15.06408578","TLE_LINE2":"2 45417  53.0531 292.4176 0001249  89.3697 270.7435 15.06408578132108","EPHEMERIS_TYPE":"0","SITE":"AFETR","EPOCH":"2022-08-06T13:51:47.139552","ARG_OF_PERICENTER":"89.3697","FILE":"3530813","LAUNCH_DATE":"2020-03-18","PERIOD":"95.592","ELEMENT_SET_NO":"999","ECCENTRICITY":"0.00012490","PERIAPSIS":"546.322","REV_AT_EPOCH":"13210","OBJECT_ID":"2020-019BK","NORAD_CAT_ID":"45417","MEAN_ELEMENT_THEORY":"SGP4","REF_FRAME":"TEME","MEAN_MOTION_DOT":"0.00002456","BSTAR":"0.00018369000000","CENTER_NAME":"EARTH","MEAN_MOTION_DDOT":"0.0000000000000","RCS_SIZE":"LARGE"},{"OBJECT_NAME":"STARLINK-1299","OBJECT_TYPE":"PAYLOAD","TIME_SYSTEM":"UTC","RA_OF_ASC_NODE":"312.7067","MEAN_MOTION":"15.07156354","COUNTRY_CODE":"US","TLE_LINE2":"2 45418  52.9993 312.7067 0001159 109.0933 251.0181 15.07156354131536","TLE_LINE1":"1 45418U 20019BL  22218.78427019  .00006754  00000-0  46245-3 0  9993","DECAY_DATE":null,"GP_ID":"209723047","INCLINATION":"52.9993","APOAPSIS":"545.699","MEAN_ANOMALY":"251.0181","SEMIMAJOR_AXIS":"6923.031","CLASSIFICATION_TYPE":"U","LAUNCH_DATE":"2020-03-18","PERIOD":"95.544","ELEMENT_SET_NO":"999","PERIAPSIS":"544.094","ECCENTRICITY":"0.00011590","FILE":"3530813","REV_AT_EPOCH":"13153","OBJECT_ID":"2020-019BL","NORAD_CAT_ID":"45418","REF_FRAME":"TEME","MEAN_ELEMENT_THEORY":"SGP4","RCS_SIZE":"LARGE","MEAN_MOTION_DDOT":"0.0000000000000","MEAN_MOTION_DOT":"0.00006754","BSTAR":"0.00046245000000","CENTER_NAME":"EARTH","SITE":"AFETR","EPHEMERIS_TYPE":"0","EPOCH":"2022-08-06T18:49:20.944416","ARG_OF_PERICENTER":"109.0933"},{"OBJECT_ID":"2020-019BM","REV_AT_EPOCH":"13185","FILE":"3530813","ECCENTRICITY":"0.00011310","PERIAPSIS":"546.436","LAUNCH_DATE":"2020-03-18","ELEMENT_SET_NO":"999","PERIOD":"95.592","BSTAR":"0.00004575400000","CENTER_NAME":"EARTH","MEAN_MOTION_DOT":"0.00000400","RCS_SIZE":"LARGE","MEAN_MOTION_DDOT":"0.0000000000000","MEAN_ELEMENT_THEORY":"SGP4","REF_FRAME":"TEME","NORAD_CAT_ID":"45419","EPHEMERIS_TYPE":"0","SITE":"AFETR","ARG_OF_PERICENTER":"89.4079","EPOCH":"2022-08-06T13:46:29.413920","OBJECT_TYPE":"PAYLOAD","RA_OF_ASC_NODE":"292.4571","TIME_SYSTEM":"UTC","OBJECT_NAME":"STARLINK-1308","TLE_LINE2":"2 45419  53.0554 292.4571 0001131  89.4079 270.7039 15.06398014131853","COUNTRY_CODE":"US","MEAN_MOTION":"15.06398014","APOAPSIS":"548.003","INCLINATION":"53.0554","GP_ID":"209723298","TLE_LINE1":"1 45419U 20019BM  22218.57395155  .00000400  00000-0  45754-4 0  9993","DECAY_DATE":null,"CLASSIFICATION_TYPE":"U","SEMIMAJOR_AXIS":"6925.355","MEAN_ANOMALY":"270.7039"},{"ARG_OF_PERICENTER":"72.1930","EPOCH":"2022-08-06T17:47:59.809344","EPHEMERIS_TYPE":"0","SITE":"AFETR","REF_FRAME":"TEME","MEAN_ELEMENT_THEORY":"SGP4","NORAD_CAT_ID":"45531","CENTER_NAME":"EARTH","BSTAR":"0.00011250000000","MEAN_MOTION_DOT":"0.00001395","RCS_SIZE":"LARGE","MEAN_MOTION_DDOT":"0.0000000000000","FILE":"3530813","PERIAPSIS":"546.255","ECCENTRICITY":"0.00013340","LAUNCH_DATE":"2020-04-22","PERIOD":"95.591","ELEMENT_SET_NO":"999","OBJECT_ID":"2020-025A","REV_AT_EPOCH":"12750","MEAN_ANOMALY":"287.9205","CLASSIFICATION_TYPE":"U","SEMIMAJOR_AXIS":"6925.314","DECAY_DATE":null,"TLE_LINE1":"1 45531U 20025A   22218.74166446  .00001395  00000-0  11250-3 0  9990","APOAPSIS":"548.103","INCLINATION":"53.0534","GP_ID":"209722560","COUNTRY_CODE":"US","MEAN_MOTION":"15.06411313","TLE_LINE2":"2 45531  53.0534 231.6992 0001334  72.1930 287.9205 15.06411313127508","OBJECT_TYPE":"PAYLOAD","TIME_SYSTEM":"UTC","RA_OF_ASC_NODE":"231.6992","OBJECT_NAME":"STARLINK-1329"},{"DECAY_DATE":null,"TLE_LINE1":"1 45532U 20025B   22218.75272876 -.00000632  00000-0 -23528-4 0  9994","APOAPSIS":"548.221","INCLINATION":"53.0539","GP_ID":"209723810","MEAN_ANOMALY":"286.0837","CLASSIFICATION_TYPE":"U","SEMIMAJOR_AXIS":"6925.361","TIME_SYSTEM":"UTC","OBJECT_TYPE":"PAYLOAD","RA_OF_ASC_NODE":"231.6506","OBJECT_NAME":"STARLINK-1338","COUNTRY_CODE":"US","MEAN_MOTION":"15.06396026","TLE_LINE2":"2 45532  53.0539 231.6506 0001437  74.0310 286.0837 15.06396026127506","EPHEMERIS_TYPE":"0","SITE":"AFETR","ARG_OF_PERICENTER":"74.0310","EPOCH":"2022-08-06T18:03:55.764864","FILE":"3530813","PERIAPSIS":"546.231","ECCENTRICITY":"0.00014370","ELEMENT_SET_NO":"999","LAUNCH_DATE":"2020-04-22","PERIOD":"95.592","OBJECT_ID":"2020-025B","REV_AT_EPOCH":"12750","MEAN_ELEMENT_THEORY":"SGP4","REF_FRAME":"TEME","NORAD_CAT_ID":"45532","CENTER_NAME":"EARTH","BSTAR":"-0.00002352800000","MEAN_MOTION_DOT":"-0.00000632","RCS_SIZE":"LARGE","MEAN_MOTION_DDOT":"0.0000000000000"},{"MEAN_ELEMENT_THEORY":"SGP4","REF_FRAME":"TEME","NORAD_CAT_ID":"45533","CENTER_NAME":"EARTH","BSTAR":"0.00177680000000","MEAN_MOTION_DOT":"0.00189284","RCS_SIZE":"LARGE","MEAN_MOTION_DDOT":"0.0000000000000","FILE":"3530813","ECCENTRICITY":"0.00029370","PERIAPSIS":"368.206","LAUNCH_DATE":"2020-04-22","PERIOD":"91.950","ELEMENT_SET_NO":"999","OBJECT_ID":"2020-025C","REV_AT_EPOCH":"12846","ARG_OF_PERICENTER":"233.3833","EPOCH":"2022-08-06T21:05:14.709408","EPHEMERIS_TYPE":"0","SITE":"AFETR","COUNTRY_CODE":"US","MEAN_MOTION":"15.66062085","TLE_LINE2":"2 45533  53.0366 164.2107 0002937 233.3833 126.6912 15.66062085128469","OBJECT_TYPE":"PAYLOAD","RA_OF_ASC_NODE":"164.2107","TIME_SYSTEM":"UTC","OBJECT_NAME":"STARLINK-1339","MEAN_ANOMALY":"126.6912","CLASSIFICATION_TYPE":"U","SEMIMAJOR_AXIS":"6748.323","DECAY_DATE":null,"TLE_LINE1":"1 45533U 20025C   22218.87864247  .00189284  00000-0  17768-2 0  9993","APOAPSIS":"372.170","INCLINATION":"53.0366","GP_ID":"209724061"},{"MEAN_ANOMALY":"307.5130","CLASSIFICATION_TYPE":"U","SEMIMAJOR_AXIS":"6925.369","TLE_LINE1":"1 45534U 20025D   22218.76377915 -.00000338  00000-0 -37538-5 0  9997","DECAY_DATE":null,"GP_ID":"209722810","APOAPSIS":"548.545","INCLINATION":"53.0534","MEAN_MOTION":"15.06393456","COUNTRY_CODE":"US","TLE_LINE2":"2 45534  53.0534 231.5897 0001894  52.6031 307.5130 15.06393456127503","OBJECT_NAME":"STARLINK-1341","TIME_SYSTEM":"UTC","OBJECT_TYPE":"PAYLOAD","RA_OF_ASC_NODE":"231.5897","ARG_OF_PERICENTER":"52.6031","EPOCH":"2022-08-06T18:19:50.518560","SITE":"AFETR","EPHEMERIS_TYPE":"0","MEAN_ELEMENT_THEORY":"SGP4","REF_FRAME":"TEME","NORAD_CAT_ID":"45534","RCS_SIZE":"LARGE","MEAN_MOTION_DDOT":"0.0000000000000","BSTAR":"-0.00000375380000","CENTER_NAME":"EARTH","MEAN_MOTION_DOT":"-0.00000338","ECCENTRICITY":"0.00018940","PERIAPSIS":"545.922","ELEMENT_SET_NO":"999","LAUNCH_DATE":"2020-04-22","PERIOD":"95.593","FILE":"3530813","OBJECT_ID":"2020-025D","REV_AT_EPOCH":"12750"}];
